[{"OBJECT_NAME":"SKYKRAFT-1A","OBJECT_ID":"2023-001AX","EPOCH":"2026-03-09T17:03:19.828224","MEAN_MOTION":15.28083228,"ECCENTRICITY":0.00112767,"INCLINATION":97.3349,"RA_OF_ASC_NODE":127.629,"ARG_OF_PERICENTER":121.5092,"MEAN_ANOMALY":238.7251,"EPHEMERIS_TYPE":0,"CLASSIFICATION_TYPE":"U","NORAD_CAT_ID":55054,"ELEMENT_SET_NO":999,"REV_AT_EPOCH":17652,"BSTAR":0.0003006872,"MEAN_MOTION_DOT":8.177e-5,"MEAN_MOTION_DDOT":0},{"OBJECT_NAME":"STARLINK-31381","OBJECT_ID":"2024-068Q","EPOCH":"2026-03-09T05:53:36.970656","MEAN_MOTION":15.27584318,"ECCENTRICITY":0.00013478,"INCLINATION":43.0026,"RA_OF_ASC_NODE":33.6651,"ARG_OF_PERICENTER":260.9479,"MEAN_ANOMALY":99.122,"EPHEMERIS_TYPE":0,"CLASSIFICATION_TYPE":"U","NORAD_CAT_ID":59469,"ELEMENT_SET_NO":999,"REV_AT_EPOCH":10849,"BSTAR":1.5253567e-5,"MEAN_MOTION_DOT":1.58e-6,"MEAN_MOTION_DDOT":0}]
