SKYKRAFT-1A             
1 55054U 23001AX  26068.71064616  .00008177  00000+0  30069-3 0  9991
2 55054  97.3349 127.6290 0011277 121.5092 238.7251 15.28083228176529
STARLINK-31381          
1 59469U 24068Q   26068.24556679  .00000158  00000+0  15254-4 0  9993
2 59469  43.0026  33.6651 0001347 260.9479  99.1220 15.27584318108495
